{
  "type": "FeatureCollection",
  "features": [
    {
      "type": "Feature",
      "properties": {
        "norad_id": 66397,
        "name": "STARLINK-35510",
        "group": "last-30-days",
        "lat": 43.452869190968435,
        "lon": 88.59552628228577,
        "alt_km": 412.15152328288787,
        "timestamp": "2025-12-02T06:27:51.800414+00:00",
        "meta_object_name": "STARLINK-35510",
        "meta_object_id": "2025-257T",
        "meta_epoch": "2025-12-01T20:00:01.999008",
        "meta_mean_motion": 15.49232422,
        "meta_eccentricity": 0.0001129,
        "meta_inclination": 53.1588,
        "meta_ra_of_asc_node": 315.9416,
        "meta_arg_of_pericenter": 99.6234,
        "meta_mean_anomaly": 107.9468,
        "meta_ephemeris_type": 0,
        "meta_classification_type": "U",
        "meta_norad_cat_id": 66397,
        "meta_element_set_no": 999,
        "meta_rev_at_epoch": 474,
        "meta_bstar": 0.0022842,
        "meta_mean_motion_dot": 0.00128351,
        "meta_mean_motion_ddot": 0,
        "tle_line1": "1 66397U 25257T   25335.83335647  .00128351  00000+0  22842-2 0  9998",
        "tle_line2": "2 66397  53.1588 315.9416 0001129  99.6234 107.9468 15.49232422  4742"
      },
      "geometry": {
        "type": "Point",
        "coordinates": [
          88.59552628228577,
          43.452869190968435
        ]
      }
    },
    {
      "type": "Feature",
      "properties": {
        "norad_id": 66398,
        "name": "STARLINK-35642",
        "group": "last-30-days",
        "lat": 42.34821787791324,
        "lon": 90.74359965758198,
        "alt_km": 412.11894930426115,
        "timestamp": "2025-12-02T06:27:51.800424+00:00",
        "meta_object_name": "STARLINK-35642",
        "meta_object_id": "2025-257U",
        "meta_epoch": "2025-12-01T20:00:01.999008",
        "meta_mean_motion": 15.49229802,
        "meta_eccentricity": 0.0001435,
        "meta_inclination": 53.1588,
        "meta_ra_of_asc_node": 315.937,
        "meta_arg_of_pericenter": 98.7749,
        "meta_mean_anomaly": 110.7122,
        "meta_ephemeris_type": 0,
        "meta_classification_type": "U",
        "meta_norad_cat_id": 66398,
        "meta_element_set_no": 999,
        "meta_rev_at_epoch": 474,
        "meta_bstar": 0.0024886,
        "meta_mean_motion_dot": 0.00140076,
        "meta_mean_motion_ddot": 0,
        "tle_line1": "1 66398U 25257U   25335.83335647  .00140076  00000+0  24886-2 0  9997",
        "tle_line2": "2 66398  53.1588 315.9370 0001435  98.7749 110.7122 15.49229802  4740"
      },
      "geometry": {
        "type": "Point",
        "coordinates": [
          90.74359965758198,
          42.34821787791324
        ]
      }
    },
    {
      "type": "Feature",
      "properties": {
        "norad_id": 66399,
        "name": "STARLINK-35657",
        "group": "last-30-days",
        "lat": 41.20313036736876,
        "lon": 92.81940122832766,
        "alt_km": 412.1747420186648,
        "timestamp": "2025-12-02T06:27:51.800434+00:00",
        "meta_object_name": "STARLINK-35657",
        "meta_object_id": "2025-257V",
        "meta_epoch": "2025-12-01T20:00:01.999008",
        "meta_mean_motion": 15.49234504,
        "meta_eccentricity": 0.0001565,
        "meta_inclination": 53.1587,
        "meta_ra_of_asc_node": 315.9332,
        "meta_arg_of_pericenter": 99.4829,
        "meta_mean_anomaly": 111.9121,
        "meta_ephemeris_type": 0,
        "meta_classification_type": "U",
        "meta_norad_cat_id": 66399,
        "meta_element_set_no": 999,
        "meta_rev_at_epoch": 474,
        "meta_bstar": 0.0027193,
        "meta_mean_motion_dot": 0.00153393,
        "meta_mean_motion_ddot": 0,
        "tle_line1": "1 66399U 25257V   25335.83335647  .00153393  00000+0  27193-2 0  9998",
        "tle_line2": "2 66399  53.1587 315.9332 0001565  99.4829 111.9121 15.49234504  4746"
      },
      "geometry": {
        "type": "Point",
        "coordinates": [
          92.81940122832766,
          41.20313036736876
        ]
      }
    },
    {
      "type": "Feature",
      "properties": {
        "norad_id": 66400,
        "name": "STARLINK-35667",
        "group": "last-30-days",
        "lat": 38.82303572668441,
        "lon": 96.73102636765894,
        "alt_km": 412.8643368949033,
        "timestamp": "2025-12-02T06:27:51.800446+00:00",
        "meta_object_name": "STARLINK-35667",
        "meta_object_id": "2025-257W",
        "meta_epoch": "2025-12-01T20:00:01.999008",
        "meta_mean_motion": 15.49360287,
        "meta_eccentricity": 0.0001645,
        "meta_inclination": 53.1586,
        "meta_ra_of_asc_node": 315.9243,
        "meta_arg_of_pericenter": 93.1413,
        "meta_mean_anomaly": 122.0477,
        "meta_ephemeris_type": 0,
        "meta_classification_type": "U",
        "meta_norad_cat_id": 66400,
        "meta_element_set_no": 999,
        "meta_rev_at_epoch": 474,
        "meta_bstar": -0.0017308,
        "meta_mean_motion_dot": -0.00095716,
        "meta_mean_motion_ddot": 0,
        "tle_line1": "1 66400U 25257W   25335.83335647 -.00095716  00000+0 -17308-2 0  9994",
        "tle_line2": "2 66400  53.1586 315.9243 0001645  93.1413 122.0477 15.49360287  4743"
      },
      "geometry": {
        "type": "Point",
        "coordinates": [
          96.73102636765894,
          38.82303572668441
        ]
      }
    },
    {
      "type": "Feature",
      "properties": {
        "norad_id": 66401,
        "name": "STARLINK-35668",
        "group": "last-30-days",
        "lat": 37.578040144595995,
        "lon": 98.60072948981652,
        "alt_km": 412.8253955906912,
        "timestamp": "2025-12-02T06:27:51.800456+00:00",
        "meta_object_name": "STARLINK-35668",
        "meta_object_id": "2025-257X",
        "meta_epoch": "2025-12-01T20:00:01.999008",
        "meta_mean_motion": 15.49238081,
        "meta_eccentricity": 0.0001512,
        "meta_inclination": 53.1587,
        "meta_ra_of_asc_node": 315.9211,
        "meta_arg_of_pericenter": 100.432,
        "meta_mean_anomaly": 116.7135,
        "meta_ephemeris_type": 0,
        "meta_classification_type": "U",
        "meta_norad_cat_id": 66401,
        "meta_element_set_no": 999,
        "meta_rev_at_epoch": 474,
        "meta_bstar": 0.0025502,
        "meta_mean_motion_dot": 0.00143661,
        "meta_mean_motion_ddot": 0,
        "tle_line1": "1 66401U 25257X   25335.83335647  .00143661  00000+0  25502-2 0  9991",
        "tle_line2": "2 66401  53.1587 315.9211 0001512 100.4320 116.7135 15.49238081  4749"
      },
      "geometry": {
        "type": "Point",
        "coordinates": [
          98.60072948981652,
          37.578040144595995
        ]
      }
    },
    {
      "type": "Feature",
      "properties": {
        "norad_id": 66402,
        "name": "STARLINK-35644",
        "group": "last-30-days",
        "lat": 40.026685403524496,
        "lon": 94.8146402606213,
        "alt_km": 412.4057856104009,
        "timestamp": "2025-12-02T06:27:51.800466+00:00",
        "meta_object_name": "STARLINK-35644",
        "meta_object_id": "2025-257Y",
        "meta_epoch": "2025-12-01T20:00:01.999008",
        "meta_mean_motion": 15.49234206,
        "meta_eccentricity": 0.0001502,
        "meta_inclination": 53.1588,
        "meta_ra_of_asc_node": 315.9289,
        "meta_arg_of_pericenter": 100.3236,
        "meta_mean_anomaly": 112.9898,
        "meta_ephemeris_type": 0,
        "meta_classification_type": "U",
        "meta_norad_cat_id": 66402,
        "meta_element_set_no": 999,
        "meta_rev_at_epoch": 474,
        "meta_bstar": 0.0027119,
        "meta_mean_motion_dot": 0.00152964,
        "meta_mean_motion_ddot": 0,
        "tle_line1": "1 66402U 25257Y   25335.83335647  .00152964  00000+0  27119-2 0  9994",
        "tle_line2": "2 66402  53.1588 315.9289 0001502 100.3236 112.9898 15.49234206  4749"
      },
      "geometry": {
        "type": "Point",
        "coordinates": [
          94.8146402606213,
          40.026685403524496
        ]
      }
    },
    {
      "type": "Feature",
      "properties": {
        "norad_id": 66403,
        "name": "STARLINK-35602",
        "group": "last-30-days",
        "lat": 36.315158345238515,
        "lon": 100.39225925613094,
        "alt_km": 413.1659315780944,
        "timestamp": "2025-12-02T06:27:51.800481+00:00",
        "meta_object_name": "STARLINK-35602",
        "meta_object_id": "2025-257Z",
        "meta_epoch": "2025-12-01T20:00:01.999008",
        "meta_mean_motion": 15.49303811,
        "meta_eccentricity": 0.0001685,
        "meta_inclination": 53.1586,
        "meta_ra_of_asc_node": 315.9172,
        "meta_arg_of_pericenter": 98.0396,
        "meta_mean_anomaly": 121.0126,
        "meta_ephemeris_type": 0,
        "meta_classification_type": "U",
        "meta_norad_cat_id": 66403,
        "meta_element_set_no": 999,
        "meta_rev_at_epoch": 474,
        "meta_bstar": -0.00016622,
        "meta_mean_motion_dot": -9.68e-05,
        "meta_mean_motion_ddot": 0,
        "tle_line1": "1 66403U 25257Z   25335.83335647 -.00009680  00000+0 -16622-3 0  9991",
        "tle_line2": "2 66403  53.1586 315.9172 0001685  98.0396 121.0126 15.49303811  4745"
      },
      "geometry": {
        "type": "Point",
        "coordinates": [
          100.39225925613094,
          36.315158345238515
        ]
      }
    }
  ]
}